COSMOS 2251 DEB         
1 37535U 93036BNQ 17345.82775740  .00000398  00000-0  11955-3 0  9998
2 37535  74.0259 153.4355 0035488 286.8509 137.8890 14.45594174429997
